start=new Date('2023-06-06T00:00:00.000Z').valueOf();
sats=[{"MEAN_ELEMENT_THEORY":"SGP4","REF_FRAME":"TEME","EPHEMERIS_TYPE":"0","OBJECT_TYPE":"PAYLOAD","FILE":"3925691","REV_AT_EPOCH":"6143","PERIAPSIS":"539.184","BSTAR":"0.00002774500000","MEAN_ANOMALY":"260.3322","SEMIMAJOR_AXIS":"6917.856","MEAN_MOTION_DDOT":"0.0000000000000","OBJECT_NAME":"STARLINK-3902","SITE":"AFETR","NORAD_CAT_ID":"52487","OBJECT_ID":"2022-049AN","COUNTRY_CODE":"US","PERIOD":"95.437","APOAPSIS":"540.257","TLE_LINE1":"1 52487U 22049AN  23156.54724409  .00000154  00000-0  27745-4 0  9994","ECCENTRICITY":"0.00007750","RCS_SIZE":"LARGE","LAUNCH_DATE":"2022-05-06","CLASSIFICATION_TYPE":"U","MEAN_MOTION_DOT":"0.00000154","CENTER_NAME":"EARTH","INCLINATION":"53.2151","GP_ID":"233258276","RA_OF_ASC_NODE":"254.9542","ELEMENT_SET_NO":"999","MEAN_MOTION":"15.08848112","EPOCH":"2023-06-05T13:08:01.889376","ARG_OF_PERICENTER":"99.7758","DECAY_DATE":null,"TIME_SYSTEM":"UTC","TLE_LINE2":"2 52487  53.2151 254.9542 0000775  99.7758 260.3322 15.08848112 61430"},{"SITE":"AFETR","OBJECT_NAME":"STARLINK-3892","SEMIMAJOR_AXIS":"6917.862","MEAN_MOTION_DDOT":"0.0000000000000","MEAN_ANOMALY":"265.9953","OBJECT_ID":"2022-049AP","NORAD_CAT_ID":"52488","OBJECT_TYPE":"PAYLOAD","FILE":"3925691","EPHEMERIS_TYPE":"0","REF_FRAME":"TEME","MEAN_ELEMENT_THEORY":"SGP4","BSTAR":"0.00006503500000","PERIAPSIS":"539.253","REV_AT_EPOCH":"6006","ECCENTRICITY":"0.00006850","TLE_LINE1":"1 52488U 22049AP  23156.57207180  .00000748  00000-0  65035-4 0  9993","PERIOD":"95.437","COUNTRY_CODE":"US","APOAPSIS":"540.200","CLASSIFICATION_TYPE":"U","LAUNCH_DATE":"2022-05-06","RCS_SIZE":"LARGE","INCLINATION":"53.2171","CENTER_NAME":"EARTH","MEAN_MOTION_DOT":"0.00000748","DECAY_DATE":null,"TIME_SYSTEM":"UTC","ARG_OF_PERICENTER":"94.1117","EPOCH":"2023-06-05T13:43:47.003520","MEAN_MOTION":"15.08846157","TLE_LINE2":"2 52488  53.2171 264.7354 0000685  94.1117 265.9953 15.08846157 60067","RA_OF_ASC_NODE":"264.7354","GP_ID":"233257024","ELEMENT_SET_NO":"999"},{"ECCENTRICITY":"0.00008990","TLE_LINE1":"1 52489U 22049AQ  23156.71190082  .00001680  00000-0  12358-3 0  9997","COUNTRY_CODE":"US","PERIOD":"95.437","APOAPSIS":"540.319","MEAN_ANOMALY":"270.7482","SEMIMAJOR_AXIS":"6917.832","MEAN_MOTION_DDOT":"0.0000000000000","OBJECT_NAME":"STARLINK-3923","SITE":"AFETR","NORAD_CAT_ID":"52489","OBJECT_ID":"2022-049AQ","MEAN_ELEMENT_THEORY":"SGP4","REF_FRAME":"TEME","EPHEMERIS_TYPE":"0","FILE":"3925751","OBJECT_TYPE":"PAYLOAD","PERIAPSIS":"539.076","REV_AT_EPOCH":"6008","BSTAR":"0.00012358000000","MEAN_MOTION":"15.08855685","EPOCH":"2023-06-05T17:05:08.230848","ARG_OF_PERICENTER":"89.3613","TIME_SYSTEM":"UTC","DECAY_DATE":null,"TLE_LINE2":"2 52489  53.2168 264.1089 0000899  89.3613 270.7482 15.08855685 60086","GP_ID":"233286236","RA_OF_ASC_NODE":"264.1089","ELEMENT_SET_NO":"999","RCS_SIZE":"LARGE","LAUNCH_DATE":"2022-05-06","CLASSIFICATION_TYPE":"U","MEAN_MOTION_DOT":"0.00001680","INCLINATION":"53.2168","CENTER_NAME":"EARTH"},{"MEAN_MOTION_DOT":"-0.00007257","CENTER_NAME":"EARTH","INCLINATION":"53.2168","RCS_SIZE":"LARGE","CLASSIFICATION_TYPE":"U","LAUNCH_DATE":"2022-05-06","TLE_LINE2":"2 52490  53.2168 253.7712 0000808  67.3006 292.8072 15.08888145 60231","ARG_OF_PERICENTER":"67.3006","EPOCH":"2023-06-05T18:52:26.234400","MEAN_MOTION":"15.08888145","DECAY_DATE":null,"TIME_SYSTEM":"UTC","ELEMENT_SET_NO":"999","GP_ID":"233285484","RA_OF_ASC_NODE":"253.7712","NORAD_CAT_ID":"52490","OBJECT_ID":"2022-049AR","MEAN_MOTION_DDOT":"0.0000000000000","SEMIMAJOR_AXIS":"6917.733","MEAN_ANOMALY":"292.8072","SITE":"AFETR","OBJECT_NAME":"STARLINK-3914","PERIAPSIS":"539.039","REV_AT_EPOCH":"6023","BSTAR":"-0.00043778000000","REF_FRAME":"TEME","MEAN_ELEMENT_THEORY":"SGP4","OBJECT_TYPE":"PAYLOAD","FILE":"3925751","EPHEMERIS_TYPE":"0","ECCENTRICITY":"0.00008080","TLE_LINE1":"1 52490U 22049AR  23156.78641475 -.00007257  00000-0 -43778-3 0  9991","APOAPSIS":"540.157","PERIOD":"95.435","COUNTRY_CODE":"US"},{"MEAN_MOTION_DOT":"0.00001818","INCLINATION":"53.2167","CENTER_NAME":"EARTH","RCS_SIZE":"LARGE","LAUNCH_DATE":"2022-05-06","CLASSIFICATION_TYPE":"U","ELEMENT_SET_NO":"999","GP_ID":"233285734","RA_OF_ASC_NODE":"254.3348","TLE_LINE2":"2 52491  53.2167 254.3348 0000817  80.6258 279.4827 15.08845842 60214","EPOCH":"2023-06-05T15:52:17.354208","MEAN_MOTION":"15.08845842","ARG_OF_PERICENTER":"80.6258","DECAY_DATE":null,"TIME_SYSTEM":"UTC","PERIAPSIS":"539.162","REV_AT_EPOCH":"6021","BSTAR":"0.00013228000000","MEAN_ELEMENT_THEORY":"SGP4","REF_FRAME":"TEME","EPHEMERIS_TYPE":"0","FILE":"3925751","OBJECT_TYPE":"PAYLOAD","NORAD_CAT_ID":"52491","OBJECT_ID":"2022-049AS","MEAN_ANOMALY":"279.4827","SEMIMAJOR_AXIS":"6917.863","MEAN_MOTION_DDOT":"0.0000000000000","OBJECT_NAME":"STARLINK-3908","SITE":"AFETR","APOAPSIS":"540.293","COUNTRY_CODE":"US","PERIOD":"95.437","TLE_LINE1":"1 52491U 22049AS  23156.66131197  .00001818  00000-0  13228-3 0  9996","ECCENTRICITY":"0.00008170"},{"INCLINATION":"53.2177","CENTER_NAME":"EARTH","MEAN_MOTION_DOT":"0.00001343","CLASSIFICATION_TYPE":"U","LAUNCH_DATE":"2022-05-06","RCS_SIZE":"LARGE","ELEMENT_SET_NO":"999","RA_OF_ASC_NODE":"254.4024","GP_ID":"233285986","TLE_LINE2":"2 52492  53.2177 254.4024 0001025  75.7635 284.3471 15.08847284 60216","DECAY_DATE":null,"TIME_SYSTEM":"UTC","ARG_OF_PERICENTER":"75.7635","EPOCH":"2023-06-05T15:31:05.396736","MEAN_MOTION":"15.08847284","BSTAR":"0.00010243000000","REV_AT_EPOCH":"6021","PERIAPSIS":"539.014","OBJECT_TYPE":"PAYLOAD","FILE":"3925751","EPHEMERIS_TYPE":"0","REF_FRAME":"TEME","MEAN_ELEMENT_THEORY":"SGP4","OBJECT_ID":"2022-049AT","NORAD_CAT_ID":"52492","SITE":"AFETR","OBJECT_NAME":"STARLINK-3916","SEMIMAJOR_AXIS":"6917.858","MEAN_MOTION_DDOT":"0.0000000000000","MEAN_ANOMALY":"284.3471","APOAPSIS":"540.432","PERIOD":"95.437","COUNTRY_CODE":"US","TLE_LINE1":"1 52492U 22049AT  23156.64659024  .00001343  00000-0  10243-3 0  9996","ECCENTRICITY":"0.00010250"},{"OBJECT_NAME":"STARLINK-3883","SITE":"AFETR","MEAN_ANOMALY":"265.2563","SEMIMAJOR_AXIS":"6917.841","MEAN_MOTION_DDOT":"0.0000000000000","OBJECT_ID":"2022-049AU","NORAD_CAT_ID":"52493","EPHEMERIS_TYPE":"0","FILE":"3925751","OBJECT_TYPE":"PAYLOAD","MEAN_ELEMENT_THEORY":"SGP4","REF_FRAME":"TEME","BSTAR":"0.00038325000000","REV_AT_EPOCH":"6021","PERIAPSIS":"539.031","TLE_LINE1":"1 52493U 22049AU  23156.65763234  .00005819  00000-0  38325-3 0  9990","ECCENTRICITY":"0.00009760","COUNTRY_CODE":"US","PERIOD":"95.437","APOAPSIS":"540.381","LAUNCH_DATE":"2022-05-06","CLASSIFICATION_TYPE":"U","RCS_SIZE":"LARGE","CENTER_NAME":"EARTH","INCLINATION":"53.2160","MEAN_MOTION_DOT":"0.00005819","DECAY_DATE":null,"TIME_SYSTEM":"UTC","EPOCH":"2023-06-05T15:46:59.434176","MEAN_MOTION":"15.08852903","ARG_OF_PERICENTER":"94.8541","TLE_LINE2":"2 52493  53.2160 254.3503 0000976  94.8541 265.2563 15.08852903 60216","RA_OF_ASC_NODE":"254.3503","GP_ID":"233286736","ELEMENT_SET_NO":"999"},{"MEAN_MOTION_DOT":"0.00002728","CENTER_NAME":"EARTH","INCLINATION":"53.2163","RCS_SIZE":"LARGE","CLASSIFICATION_TYPE":"U","LAUNCH_DATE":"2022-05-06","TLE_LINE2":"2 52494  53.2163 254.7479 0000842  72.0253 288.0830 15.08854668 60205","ARG_OF_PERICENTER":"72.0253","MEAN_MOTION":"15.08854668","EPOCH":"2023-06-05T13:39:47.845728","TIME_SYSTEM":"UTC","DECAY_DATE":null,"ELEMENT_SET_NO":"999","GP_ID":"233258526","RA_OF_ASC_NODE":"254.7479","NORAD_CAT_ID":"52494","OBJECT_ID":"2022-049AV","SEMIMAJOR_AXIS":"6917.836","MEAN_MOTION_DDOT":"0.0000000000000","MEAN_ANOMALY":"288.0830","SITE":"AFETR","OBJECT_NAME":"STARLINK-3857","PERIAPSIS":"539.118","REV_AT_EPOCH":"6020","BSTAR":"0.00018932000000","REF_FRAME":"TEME","MEAN_ELEMENT_THEORY":"SGP4","FILE":"3925691","OBJECT_TYPE":"PAYLOAD","EPHEMERIS_TYPE":"0","TLE_LINE1":"1 52494U 22049AV  23156.56930377  .00002728  00000-0  18932-3 0  9993","ECCENTRICITY":"0.00008420","APOAPSIS":"540.283","PERIOD":"95.437","COUNTRY_CODE":"US"},{"TLE_LINE2":"2 52495  53.2159 254.3833 0001074  86.3569 273.7546 15.08847970 60211","TIME_SYSTEM":"UTC","DECAY_DATE":null,"ARG_OF_PERICENTER":"86.3569","MEAN_MOTION":"15.08847970","EPOCH":"2023-06-05T15:36:23.458464","ELEMENT_SET_NO":"999","RA_OF_ASC_NODE":"254.3833","GP_ID":"233285235","CENTER_NAME":"EARTH","INCLINATION":"53.2159","MEAN_MOTION_DOT":"0.00002546","CLASSIFICATION_TYPE":"U","LAUNCH_DATE":"2022-05-06","RCS_SIZE":"LARGE","TLE_LINE1":"1 52495U 22049AW  23156.65027151  .00002546  00000-0  17794-3 0  9994","ECCENTRICITY":"0.00010740","APOAPSIS":"540.464","PERIOD":"95.437","COUNTRY_CODE":"US","OBJECT_ID":"2022-049AW","NORAD_CAT_ID":"52495","SITE":"AFETR","OBJECT_NAME":"STARLINK-3905","SEMIMAJOR_AXIS":"6917.856","MEAN_MOTION_DDOT":"0.0000000000000","MEAN_ANOMALY":"273.7546","BSTAR":"0.00017794000000","PERIAPSIS":"538.978","REV_AT_EPOCH":"6021","FILE":"3925751","OBJECT_TYPE":"PAYLOAD","EPHEMERIS_TYPE":"0","REF_FRAME":"TEME","MEAN_ELEMENT_THEORY":"SGP4"},{"TIME_SYSTEM":"UTC","DECAY_DATE":null,"MEAN_MOTION":"15.08847051","EPOCH":"2023-06-05T16:06:11.829600","ARG_OF_PERICENTER":"107.1819","TLE_LINE2":"2 52496  53.2153 249.2929 0000442 107.1819 252.9222 15.08847051 60280","RA_OF_ASC_NODE":"249.2929","GP_ID":"233286486","ELEMENT_SET_NO":"999","LAUNCH_DATE":"2022-05-06","CLASSIFICATION_TYPE":"U","RCS_SIZE":"LARGE","INCLINATION":"53.2153","CENTER_NAME":"EARTH","MEAN_MOTION_DOT":"0.00001435","ECCENTRICITY":"0.00004420","TLE_LINE1":"1 52496U 22049AX  23156.67097025  .00001435  00000-0  10816-3 0  9998","COUNTRY_CODE":"US","PERIOD":"95.437","APOAPSIS":"540.030","OBJECT_NAME":"STARLINK-3871","SITE":"AFETR","MEAN_ANOMALY":"252.9222","MEAN_MOTION_DDOT":"0.0000000000000","SEMIMAJOR_AXIS":"6917.859","OBJECT_ID":"2022-049AX","NORAD_CAT_ID":"52496","EPHEMERIS_TYPE":"0","OBJECT_TYPE":"PAYLOAD","FILE":"3925751","MEAN_ELEMENT_THEORY":"SGP4","REF_FRAME":"TEME","BSTAR":"0.00010816000000","PERIAPSIS":"539.418","REV_AT_EPOCH":"6028"}];
